[Satellite]
VERSION=1.1
NAME=COSMOS 2397
NICKNAME=COSMOS 2397
TLE1=1 27775U 03015A   11059.01816387 -.00000179  00000-0  10000-3 0  2969
TLE2=2 27775   4.8732  65.1224 0045111 221.4635 138.4080  1.00488408 28792
